[{"OBJECT_NAME":"HAWK-6C","OBJECT_ID":"2023-011C","EPOCH":"2026-03-09T16:08:26.380320","MEAN_MOTION":15.2190256,"ECCENTRICITY":0.00024272,"INCLINATION":40.4846,"RA_OF_ASC_NODE":208.9466,"ARG_OF_PERICENTER":10.2947,"MEAN_ANOMALY":349.7911,"EPHEMERIS_TYPE":0,"CLASSIFICATION_TYPE":"U","NORAD_CAT_ID":55326,"ELEMENT_SET_NO":999,"REV_AT_EPOCH":17268,"BSTAR":0.00033931673,"MEAN_MOTION_DOT":7.702e-5,"MEAN_MOTION_DDOT":0},{"OBJECT_NAME":"INNOSAT 16 (RS92S7)","OBJECT_ID":"2025-155C","EPOCH":"2026-03-09T21:55:33.190176","MEAN_MOTION":15.24188147,"ECCENTRICITY":0.00110314,"INCLINATION":97.4467,"RA_OF_ASC_NODE":36.5104,"ARG_OF_PERICENTER":164.72,"MEAN_ANOMALY":195.4373,"EPHEMERIS_TYPE":0,"CLASSIFICATION_TYPE":"U","NORAD_CAT_ID":64878,"ELEMENT_SET_NO":999,"REV_AT_EPOCH":6554,"BSTAR":0.00039576165,"MEAN_MOTION_DOT":9.587e-5,"MEAN_MOTION_DDOT":0}]
